NORAD_CAT_ID,OBJECT_NAME,OBJECT_TYPE,EPOCH,MEAN_MOTION,ECCENTRICITY,INCLINATION,RA_OF_ASC_NODE,ARG_OF_PERICENTER,MEAN_ANOMALY,BSTAR,MEAN_MOTION_DOT,MEAN_MOTION_DDOT,TLE_LINE0,TLE_LINE1,TLE_LINE2,SEMIMAJOR_AXIS,PERIOD,APOGEE,PERIGEE,DECAYED
56792.0,STARLINK-6046,PAYLOAD,2023-11-04 04:58:11,14.98327818,0.000282,69.9998,344.1042,270.165,89.9186,-2.9357e-05,-4.43e-06,0.0,0 STARLINK-6046,1 56792U 23078AB  23308.20708303 -.00000443  00000-0 -29357-4 0  9991,2 56792  69.9998 344.1042 0002820 270.1650  89.9186 14.98327818 24640,6950.2,96.107,574.025,570.105,0.0
56792.0,STARLINK-6046,PAYLOAD,2023-11-04 11:22:43,14.98378908,0.0002725,69.9999,343.4314,263.077,97.0079,-0.00084395,-0.00010161,0.0,0 STARLINK-6046,1 56792U 23078AB  23308.47411057 -.00010161  00000-0 -84395-3 0  9997,2 56792  69.9999 343.4314 0002725 263.0770  97.0079 14.98378908 24426,6950.042,96.104,573.801,570.013,0.0
56792.0,STARLINK-6046,PAYLOAD,2023-11-04 19:23:24,14.9833438,0.0002745,70.0001,342.5892,269.506,90.5785,-6.2865e-05,-8.43e-06,0.0,0 STARLINK-6046,1 56792U 23078AB  23308.80791972 -.00000843  00000-0 -62865-4 0  9996,2 56792  70.0001 342.5892 0002745 269.5060  90.5785 14.98334380 24472,6950.179,96.107,573.952,570.137,0.0
56792.0,STARLINK-6046,PAYLOAD,2023-11-05 03:24:04,14.98332133,0.0002685,69.9996,341.7475,266.4543,93.6309,5.9399e-05,6.16e-06,0.0,0 STARLINK-6046,1 56792U 23078AB  23309.14171738  .00000616  00000-0  59399-4 0  9990,2 56792  69.9996 341.7475 0002685 266.4543  93.6309 14.98332133 24789,6950.186,96.107,573.917,570.185,0.0
56792.0,STARLINK-6046,PAYLOAD,2023-11-05 11:24:44,14.98334265,0.0002509,70.0002,340.905,261.9157,98.1718,0.00010713,1.186e-05,0.0,0 STARLINK-6046,1 56792U 23078AB  23309.47551407  .00001186  00000-0  10713-3 0  9990,2 56792  70.0002 340.9050 0002509 261.9157  98.1718 14.98334265 24575,6950.18,96.107,573.789,570.301,0.0
56792.0,STARLINK-6046,PAYLOAD,2023-11-05 19:25:24,14.98344655,0.000256,70.0008,340.063,277.2668,82.82,-0.00014445,-1.817e-05,0.0,0 STARLINK-6046,1 56792U 23078AB  23309.80931346 -.00001817  00000-0 -14445-3 0  9990,2 56792  70.0008 340.0630 0002560 277.2668  82.8200 14.98344655 24626,6950.148,96.106,573.792,570.233,0.0
56792.0,STARLINK-6046,PAYLOAD,2023-11-06 03:26:05,14.98332872,0.0002797,70.0005,339.2232,271.9277,88.1562,6.1914e-05,6.46e-06,0.0,0 STARLINK-6046,1 56792U 23078AB  23310.14311452  .00000646  00000-0  61914-4 0  9990,2 56792  70.0005 339.2232 0002797 271.9277  88.1562 14.98332872 24932,6950.184,96.107,573.993,570.105,0.0
56792.0,STARLINK-6046,PAYLOAD,2023-11-06 09:50:36,14.98335114,0.0002584,69.9998,338.548,265.6471,94.4393,0.00016168,1.837e-05,0.0,0 STARLINK-6046,1 56792U 23078AB  23310.41014895  .00001837  00000-0  16168-3 0  9994,2 56792  69.9998 338.5480 0002584 265.6471  94.4393 14.98335114 24717,6950.177,96.107,573.838,570.246,0.0
56792.0,STARLINK-6046,PAYLOAD,2023-11-07 03:28:08,14.98310915,0.0002864,70.0003,336.698,267.0218,93.0613,-0.00022662,-2.795e-05,0.0,0 STARLINK-6046,1 56792U 23078AB  23311.14453896 -.00002795  00000-0 -22662-3 0  9995,2 56792  70.0003 336.6980 0002864 267.0218  93.0613 14.98310915 25080,6950.252,96.108,574.107,570.126,0.0
56792.0,STARLINK-6046,PAYLOAD,2023-11-07 11:28:49,14.98301252,0.0002623,70.0006,335.8563,252.3935,107.6938,-0.00031734,-3.874e-05,0.0,0 STARLINK-6046,1 56792U 23078AB  23311.47835148 -.00003874  00000-0 -31734-3 0  9994,2 56792  70.0006 335.8563 0002623 252.3935 107.6938 14.98301252 25139,6950.282,96.109,573.97,570.324,0.0
56792.0,STARLINK-6046,PAYLOAD,2023-11-07 19:29:29,14.9831718,0.0001972,70.0013,335.0149,275.01,85.0834,-0.00011953,-1.518e-05,0.0,0 STARLINK-6046,1 56792U 23078AB  23311.81214288 -.00001518  00000-0 -11953-3 0  9992,2 56792  70.0013 335.0149 0001972 275.0100  85.0834 14.98317180 25187,6950.233,96.108,573.468,570.727,0.0
56792.0,STARLINK-6046,PAYLOAD,2023-11-08 03:30:08,14.9832997,0.000273,70.0005,334.1742,273.7188,86.3659,3.3219e-05,3.03e-06,0.0,0 STARLINK-6046,1 56792U 23078AB  23312.14592964  .00000303  00000-0  33219-4 0  9998,2 56792  70.0005 334.1742 0002730 273.7188  86.3659 14.98329970 25236,6950.193,96.107,573.955,570.161,0.0
56792.0,STARLINK-6046,PAYLOAD,2023-11-08 11:30:48,14.98337041,0.0002478,70.0001,333.3313,269.9269,90.1606,7.59e-05,8.13e-06,0.0,0 STARLINK-6046,1 56792U 23078AB  23312.47972440  .00000813  00000-0  75900-4 0  9994,2 56792  70.0001 333.3313 0002478 269.9269  90.1606 14.98337041 25281,6950.171,96.107,573.758,570.314,0.0
56792.0,STARLINK-6046,PAYLOAD,2023-11-09 11:32:48,14.98331195,0.0002601,69.9997,330.8064,259.8034,100.2831,0.00043327,5.081e-05,0.0,0 STARLINK-6046,1 56792U 23078AB  23313.48111693  .00005081  00000-0  43327-3 0  9990,2 56792  69.9997 330.8064 0002601 259.8034 100.2831 14.98331195 25437,6950.189,96.107,573.862,570.246,0.0
56792.0,STARLINK-6046,PAYLOAD,2023-11-10 03:34:09,14.9833761,0.0002178,70.0015,329.1268,261.2985,98.7928,1.2233e-05,5.3e-07,0.0,0 STARLINK-6046,1 56792U 23078AB  23314.14872421  .00000053  00000-0  12233-4 0  9994,2 56792  70.0015 329.1268 0002178 261.2985  98.7928 14.98337610 25536,6950.169,96.107,573.548,570.521,0.0
56792.0,STARLINK-6046,PAYLOAD,2023-11-10 11:34:50,14.98335365,0.0002527,69.9995,328.2807,261.711,98.3763,-6.6006e-05,-8.81e-06,0.0,0 STARLINK-6046,1 56792U 23078AB  23314.48252531 -.00000881  00000-0 -66006-4 0  9993,2 56792  69.9995 328.2807 0002527 261.7110  98.3763 14.98335365 25327,6950.176,96.107,573.798,570.285,0.0
56792.0,STARLINK-6046,PAYLOAD,2023-11-10 17:59:22,14.98336357,0.000253,69.9994,327.6069,264.1095,95.9776,-9.3498e-05,-1.209e-05,0.0,0 STARLINK-6046,1 56792U 23078AB  23314.74956418 -.00001209  00000-0 -93498-4 0  9997,2 56792  69.9994 327.6069 0002530 264.1095  95.9776 14.98336357 25365,6950.173,96.107,573.797,570.28,0.0
56792.0,STARLINK-6046,PAYLOAD,2023-11-11 03:36:10,14.98338952,0.0002579,69.9993,326.5969,267.3901,92.6962,-0.00014912,-1.872e-05,0.0,0 STARLINK-6046,1 56792U 23078AB  23315.15012158 -.00001872  00000-0 -14912-3 0  9996,2 56792  69.9993 326.5969 0002579 267.3901  92.6962 14.98338952 25684,6950.165,96.106,573.823,570.238,0.0
56792.0,STARLINK-6046,PAYLOAD,2023-11-11 10:00:42,14.9833832,0.0002368,69.9997,325.9244,260.4304,99.6588,-0.00012934,-1.636e-05,0.0,0 STARLINK-6046,1 56792U 23078AB  23315.41715945 -.00001636  00000-0 -12934-3 0  9999,2 56792  69.9997 325.9244 0002368 260.4304  99.6588 14.98338320 25460,6950.167,96.106,573.678,570.386,0.0
56792.0,STARLINK-6046,PAYLOAD,2023-11-11 18:01:22,14.98338978,0.0002216,70.0002,325.0816,280.1192,79.9717,-0.00013128,-1.659e-05,0.0,0 STARLINK-6046,1 56792U 23078AB  23315.75095915 -.00001659  00000-0 -13128-3 0  9995,2 56792  70.0002 325.0816 0002216 280.1192  79.9717 14.98338978 25512,6950.165,96.106,573.57,570.49,0.0
56792.0,STARLINK-6046,PAYLOAD,2023-11-12 03:38:11,14.98324192,0.0002521,69.9986,324.0711,265.8296,94.2575,-6.0487e-05,-8.14e-06,0.0,0 STARLINK-6046,1 56792U 23078AB  23316.15152486 -.00000814  00000-0 -60487-4 0  9990,2 56792  69.9986 324.0711 0002521 265.8296  94.2575 14.98324192 25837,6950.211,96.107,573.828,570.324,0.0
56792.0,STARLINK-6046,PAYLOAD,2023-11-12 10:02:44,14.98320088,0.0002457,69.9992,323.3989,265.8951,94.1927,-9.3343e-05,-1.206e-05,0.0,0 STARLINK-6046,1 56792U 23078AB  23316.41856984 -.00001206  00000-0 -93343-4 0  9996,2 56792  69.9992 323.3989 0002457 265.8951  94.1927 14.98320088 25615,6950.224,96.108,573.796,570.381,0.0
56792.0,STARLINK-6046,PAYLOAD,2023-11-13 03:40:12,14.98329183,0.0002753,69.999,321.5472,270.4624,89.622,2.3043e-05,1.82e-06,0.0,0 STARLINK-6046,1 56792U 23078AB  23317.15292237  .00000182  00000-0  23043-4 0  9993,2 56792  69.9990 321.5472 0002753 270.4624  89.6220 14.98329183 25988,6950.195,96.107,573.974,570.147,0.0
56792.0,STARLINK-6046,PAYLOAD,2023-11-13 10:04:44,14.9833282,0.0002765,69.9989,320.8736,270.0112,90.073,3.9588e-05,3.79e-06,0.0,0 STARLINK-6046,1 56792U 23078AB  23317.41995938  .00000379  00000-0  39588-4 0  9999,2 56792  69.9989 320.8736 0002765 270.0112  90.0730 14.98332820 25762,6950.184,96.107,573.971,570.127,0.0
56792.0,STARLINK-6046,PAYLOAD,2023-11-13 18:05:24,14.98333139,0.0002794,69.9988,320.0313,267.5296,92.5544,2.1921e-05,1.69e-06,0.0,0 STARLINK-6046,1 56792U 23078AB  23317.75375871  .00000169  00000-0  21921-4 0  9993,2 56792  69.9988 320.0313 0002794 267.5296  92.5544 14.98333139 25810,6950.183,96.107,573.99,570.106,0.0
56792.0,STARLINK-6046,PAYLOAD,2023-11-14 03:42:13,14.98329374,0.0002824,69.9988,319.0213,269.9585,90.1251,8.6257e-05,9.36e-06,0.0,0 STARLINK-6046,1 56792U 23078AB  23318.15431910  .00000936  00000-0  86257-4 0  9990,2 56792  69.9988 319.0213 0002824 269.9585  90.1251 14.98329374 26139,6950.195,96.107,574.023,570.097,0.0
56792.0,STARLINK-6046,PAYLOAD,2023-11-14 10:06:45,14.98331262,0.0002802,69.9987,318.3481,270.0365,90.0473,0.00013611,1.531e-05,0.0,0 STARLINK-6046,1 56792U 23078AB  23318.42135640  .00001531  00000-0  13611-3 0  9996,2 56792  69.9987 318.3481 0002802 270.0365  90.0473 14.98331262 25911,6950.189,96.107,574.001,570.107,0.0
56792.0,STARLINK-6046,PAYLOAD,2023-11-15 03:44:14,14.9833186,0.0002677,69.9989,316.4964,268.5301,91.5551,-8.7805e-06,-1.98e-06,0.0,0 STARLINK-6046,1 56792U 23078AB  23319.15571934 -.00000198  00000-0 -87805-5 0  9995,2 56792  69.9989 316.4964 0002677 268.5301  91.5551 14.98331860 26288,6950.187,96.107,573.913,570.192,0.0
56792.0,STARLINK-6046,PAYLOAD,2023-11-15 10:08:46,14.98332798,0.0002575,69.9992,315.8229,267.2005,92.886,6.6258e-06,-1.4e-07,0.0,0 STARLINK-6046,1 56792U 23078AB  23319.42275781 -.00000014  00000-0  66258-5 0  9991,2 56792  69.9992 315.8229 0002575 267.2005  92.8860 14.98332798 26067,6950.184,96.107,573.839,570.26,0.0
56792.0,STARLINK-6046,PAYLOAD,2023-11-16 10:10:46,14.98365661,0.0001905,70.0003,313.2989,245.8648,114.2312,-0.00065411,-7.896e-05,0.0,0 STARLINK-6046,1 56792U 23078AB  23320.42415025 -.00007896  00000-0 -65411-3 0  9994,2 56792  70.0003 313.2989 0001905 245.8648 114.2312 14.98365661 26470,6950.083,96.105,573.272,570.624,0.0
